{"type": "FeatureCollection", "features": [ {"type": "Feature", "properties": {"norad_id": 30110, "name": "FENGYUN 1C DEB", "group": "fengyun-1c-debris", "lat": -80.8412018686478, "lon": -163.70989298612403, "alt_km": 1061.2464891717254, "timestamp": "2025-12-09T18:55:17.505806+00:00", "meta": {"OBJECT_NAME": "FENGYUN 1C DEB", "OBJECT_ID": "1999-025RP", "EPOCH": "2025-12-09T06:58:00.045120", "MEAN_MOTION": 13.56222366, "ECCENTRICITY": 0.0267739, "INCLINATION": 98.9077, "RA_OF_ASC_NODE": 92.4239, "ARG_OF_PERICENTER": 1.9827, "MEAN_ANOMALY": 358.2312, "EPHEMERIS_TYPE": 0, "CLASSIFICATION_TYPE": "U", "NORAD_CAT_ID": 30110, "ELEMENT_SET_NO": 999, "REV_AT_EPOCH": 93468, "BSTAR": 0.00038558, "MEAN_MOTION_DOT": 3.02e-06, "MEAN_MOTION_DDOT": 0}, "tle": {"line1": "1 30110U 99025RP  25343.29027830  .00000302  00000+0  38558-3 0  9994", "line2": "2 30110  98.9077  92.4239 0267739   1.9827 358.2312 13.56222366934687"}}, "geometry": {"type": "Point", "coordinates": [-163.70989298612403, -80.8412018686478]}}, {"type": "Feature", "properties": {"norad_id": 30112, "name": "FENGYUN 1C DEB", "group": "fengyun-1c-debris", "lat": 57.85899826014142, "lon": 152.66602499649656, "alt_km": 667.6108783902264, "timestamp": "2025-12-09T18:55:17.505816+00:00", "meta": {"OBJECT_NAME": "FENGYUN 1C DEB", "OBJECT_ID": "1999-025RR", "EPOCH": "2025-12-09T11:36:43.554816", "MEAN_MOTION": 14.22209213, "ECCENTRICITY": 0.02016668, "INCLINATION": 99.2812, "RA_OF_ASC_NODE": 317.2596, "ARG_OF_PERICENTER": 116.8709, "MEAN_ANOMALY": 245.3237, "EPHEMERIS_TYPE": 0, "CLASSIFICATION_TYPE": "U", "NORAD_CAT_ID": 30112, "ELEMENT_SET_NO": 999, "REV_AT_EPOCH": 97536, "BSTAR": 0.00075946349, "MEAN_MOTION_DOT": 2.024e-05, "MEAN_MOTION_DDOT": 0}, "tle": {"line1": "1 30112U 99025RR  25343.48383744  .00002024  00000+0  75946-3 0  9991", "line2": "2 30112  99.2812 317.2596 0201666 116.8709 245.3237 14.22209213975368"}}, "geometry": {"type": "Point", "coordinates": [152.66602499649656, 57.85899826014142]}}, {"type": "Feature", "properties": {"norad_id": 30113, "name": "FENGYUN 1C DEB", "group": "fengyun-1c-debris", "lat": 62.77195201714777, "lon": 33.79845438781977, "alt_km": 742.5552707833622, "timestamp": "2025-12-09T18:55:17.505826+00:00", "meta": {"OBJECT_NAME": "FENGYUN 1C DEB", "OBJECT_ID": "1999-025RS", "EPOCH": "2025-12-09T13:30:23.395392", "MEAN_MOTION": 14.45260288, "ECCENTRICITY": 0.00407225, "INCLINATION": 99.0371, "RA_OF_ASC_NODE": 195.5412, "ARG_OF_PERICENTER": 11.0902, "MEAN_ANOMALY": 10.9535, "EPHEMERIS_TYPE": 0, "CLASSIFICATION_TYPE": "U", "NORAD_CAT_ID": 30113, "ELEMENT_SET_NO": 999, "REV_AT_EPOCH": 97863, "BSTAR": 0.0027403693, "MEAN_MOTION_DOT": 9.674e-05, "MEAN_MOTION_DDOT": 0}, "tle": {"line1": "1 30113U 99025RS  25343.56277078  .00009674  00000+0  27404-2 0  9996", "line2": "2 30113  99.0371 195.5412 0040722  11.0902  10.9535 14.45260288978630"}}, "geometry": {"type": "Point", "coordinates": [33.79845438781977, 62.77195201714777]}}, {"type": "Feature", "properties": {"norad_id": 30114, "name": "FENGYUN 1C DEB", "group": "fengyun-1c-debris", "lat": -75.40422031683478, "lon": 22.476770691546584, "alt_km": 921.0806059653496, "timestamp": "2025-12-09T18:55:17.505836+00:00", "meta": {"OBJECT_NAME": "FENGYUN 1C DEB", "OBJECT_ID": "1999-025RT", "EPOCH": "2025-12-09T11:30:16.145856", "MEAN_MOTION": 14.09649018, "ECCENTRICITY": 0.00821051, "INCLINATION": 98.7467, "RA_OF_ASC_NODE": 345.9334, "ARG_OF_PERICENTER": 128.8929, "MEAN_ANOMALY": 25.0006, "EPHEMERIS_TYPE": 0, "CLASSIFICATION_TYPE": "U", "NORAD_CAT_ID": 30114, "ELEMENT_SET_NO": 999, "REV_AT_EPOCH": 97108, "BSTAR": 0.00035074298, "MEAN_MOTION_DOT": 5.92e-06, "MEAN_MOTION_DDOT": 0}, "tle": {"line1": "1 30114U 99025RT  25343.47935354  .00000592  00000+0  35074-3 0  9998", "line2": "2 30114  98.7467 345.9334 0082105 128.8929  25.0006 14.09649018971088"}}, "geometry": {"type": "Point", "coordinates": [22.476770691546584, -75.40422031683478]}}, {"type": "Feature", "properties": {"norad_id": 30115, "name": "FENGYUN 1C DEB", "group": "fengyun-1c-debris", "lat": -63.262364082787975, "lon": 173.62072529507424, "alt_km": 882.1161348214182, "timestamp": "2025-12-09T18:55:17.505847+00:00", "meta": {"OBJECT_NAME": "FENGYUN 1C DEB", "OBJECT_ID": "1999-025RU", "EPOCH": "2025-12-09T13:24:56.755872", "MEAN_MOTION": 14.1975878, "ECCENTRICITY": 0.00679411, "INCLINATION": 98.6227, "RA_OF_ASC_NODE": 10.9272, "ARG_OF_PERICENTER": 69.9655, "MEAN_ANOMALY": 82.6429, "EPHEMERIS_TYPE": 0, "CLASSIFICATION_TYPE": "U", "NORAD_CAT_ID": 30115, "ELEMENT_SET_NO": 999, "REV_AT_EPOCH": 97283, "BSTAR": 0.0014441751, "MEAN_MOTION_DOT": 3.088e-05, "MEAN_MOTION_DDOT": 0}, "tle": {"line1": "1 30115U 99025RU  25343.55899023  .00003088  00000+0  14442-2 0  9998", "line2": "2 30115  98.6227  10.9272 0067941  69.9655  82.6429 14.19758780972834"}}, "geometry": {"type": "Point", "coordinates": [173.62072529507424, -63.262364082787975]}}, {"type": "Feature", "properties": {"norad_id": 30116, "name": "FENGYUN 1C DEB", "group": "fengyun-1c-debris", "lat": 66.50874014792659, "lon": 32.19470606072408, "alt_km": 784.4236795118159, "timestamp": "2025-12-09T18:55:17.505857+00:00", "meta": {"OBJECT_NAME": "FENGYUN 1C DEB", "OBJECT_ID": "1999-025RV", "EPOCH": "2025-12-09T15:57:52.938720", "MEAN_MOTION": 14.29249661, "ECCENTRICITY": 0.00204582, "INCLINATION": 99.3973, "RA_OF_ASC_NODE": 54.4594, "ARG_OF_PERICENTER": 351.5506, "MEAN_ANOMALY": 163.0811, "EPHEMERIS_TYPE": 0, "CLASSIFICATION_TYPE": "U", "NORAD_CAT_ID": 30116, "ELEMENT_SET_NO": 999, "REV_AT_EPOCH": 97465, "BSTAR": 0.0021926949, "MEAN_MOTION_DOT": 5.54e-05, "MEAN_MOTION_DDOT": 0}, "tle": {"line1": "1 30116U 99025RV  25343.66519605  .00005540  00000+0  21927-2 0  9997", "line2": "2 30116  99.3973  54.4594 0020458 351.5506 163.0811 14.29249661974653"}}, "geometry": {"type": "Point", "coordinates": [32.19470606072408, 66.50874014792659]}}, {"type": "Feature", "properties": {"norad_id": 30117, "name": "FENGYUN 1C DEB", "group": "fengyun-1c-debris", "lat": -42.73510177487775, "lon": 144.08200245622143, "alt_km": 757.722712226855, "timestamp": "2025-12-09T18:55:17.505867+00:00", "meta": {"OBJECT_NAME": "FENGYUN 1C DEB", "OBJECT_ID": "1999-025RW", "EPOCH": "2025-12-09T11:36:29.024928", "MEAN_MOTION": 14.07159921, "ECCENTRICITY": 0.01635378, "INCLINATION": 98.8038, "RA_OF_ASC_NODE": 332.0171, "ARG_OF_PERICENTER": 218.3606, "MEAN_ANOMALY": 261.9062, "EPHEMERIS_TYPE": 0, "CLASSIFICATION_TYPE": "U", "NORAD_CAT_ID": 30117, "ELEMENT_SET_NO": 999, "REV_AT_EPOCH": 96943, "BSTAR": 0.00035125954, "MEAN_MOTION_DOT": 6.21e-06, "MEAN_MOTION_DDOT": 0}, "tle": {"line1": "1 30117U 99025RW  25343.48366927  .00000621  00000+0  35126-3 0  9997", "line2": "2 30117  98.8038 332.0171 0163537 218.3606 261.9062 14.07159921969434"}}, "geometry": {"type": "Point", "coordinates": [144.08200245622143, -42.73510177487775]}}, {"type": "Feature", "properties": {"norad_id": 30118, "name": "FENGYUN 1C DEB", "group": "fengyun-1c-debris", "lat": -23.41108608772721, "lon": -8.539157676261059, "alt_km": 882.695964485979, "timestamp": "2025-12-09T18:55:17.505878+00:00", "meta": {"OBJECT_NAME": "FENGYUN 1C DEB", "OBJECT_ID": "1999-025RX", "EPOCH": "2025-12-09T11:13:32.959776", "MEAN_MOTION": 14.05121149, "ECCENTRICITY": 0.00853474, "INCLINATION": 98.8033, "RA_OF_ASC_NODE": 347.3025, "ARG_OF_PERICENTER": 68.8973, "MEAN_ANOMALY": 87.3728, "EPHEMERIS_TYPE": 0, "CLASSIFICATION_TYPE": "U", "NORAD_CAT_ID": 30118, "ELEMENT_SET_NO": 999, "REV_AT_EPOCH": 96885, "BSTAR": 0.000298561, "MEAN_MOTION_DOT": 4.56e-06, "MEAN_MOTION_DDOT": 0}, "tle": {"line1": "1 30118U 99025RX  25343.46774259  .00000456  00000+0  29856-3 0  9996", "line2": "2 30118  98.8033 347.3025 0085347  68.8973  87.3728 14.05121149968857"}}, "geometry": {"type": "Point", "coordinates": [-8.539157676261059, -23.41108608772721]}}, {"type": "Feature", "properties": {"norad_id": 30119, "name": "FENGYUN 1C DEB", "group": "fengyun-1c-debris", "lat": 80.92907853515119, "lon": -141.24559995509222, "alt_km": 894.2033076996504, "timestamp": "2025-12-09T18:55:17.505888+00:00", "meta": {"OBJECT_NAME": "FENGYUN 1C DEB", "OBJECT_ID": "1999-025RY", "EPOCH": "2025-12-09T12:19:29.183808", "MEAN_MOTION": 14.22198929, "ECCENTRICITY": 0.01312678, "INCLINATION": 97.9208, "RA_OF_ASC_NODE": 337.8136, "ARG_OF_PERICENTER": 302.4949, "MEAN_ANOMALY": 184.7536, "EPHEMERIS_TYPE": 0, "CLASSIFICATION_TYPE": "U", "NORAD_CAT_ID": 30119, "ELEMENT_SET_NO": 999, "REV_AT_EPOCH": 97134, "BSTAR": 0.0027033705, "MEAN_MOTION_DOT": 6.513e-05, "MEAN_MOTION_DDOT": 0}, "tle": {"line1": "1 30119U 99025RY  25343.51353222  .00006513  00000+0  27034-2 0  9991", "line2": "2 30119  97.9208 337.8136 0131267 302.4949 184.7536 14.22198929971348"}}, "geometry": {"type": "Point", "coordinates": [-141.24559995509222, 80.92907853515119]}}, {"type": "Feature", "properties": {"norad_id": 30120, "name": "FENGYUN 1C DEB", "group": "fengyun-1c-debris", "lat": -2.312153318552345, "lon": 66.00814266152071, "alt_km": 836.774379291558, "timestamp": "2025-12-09T18:55:17.505898+00:00", "meta": {"OBJECT_NAME": "FENGYUN 1C DEB", "OBJECT_ID": "1999-025RZ", "EPOCH": "2025-12-09T12:15:18.925344", "MEAN_MOTION": 14.27555584, "ECCENTRICITY": 0.00634354, "INCLINATION": 98.8518, "RA_OF_ASC_NODE": 65.3664, "ARG_OF_PERICENTER": 220.6863, "MEAN_ANOMALY": 149.936, "EPHEMERIS_TYPE": 0, "CLASSIFICATION_TYPE": "U", "NORAD_CAT_ID": 30120, "ELEMENT_SET_NO": 999, "REV_AT_EPOCH": 97325, "BSTAR": 0.0031297806, "MEAN_MOTION_DOT": 7.826e-05, "MEAN_MOTION_DDOT": 0}, "tle": {"line1": "1 30120U 99025RZ  25343.51063571  .00007826  00000+0  31298-2 0  9993", "line2": "2 30120  98.8518  65.3664 0063435 220.6863 149.9360 14.27555584973259"}}, "geometry": {"type": "Point", "coordinates": [66.00814266152071, -2.312153318552345]}}]}